AMC-18                  
1 29644U 06054B   22069.53305109 -.00000218  00000+0  00000+0 0  9995
2 29644   0.0431 302.3298 0002522  38.2219 296.5035  1.00271150 55904
INSAT-4B                
1 30793U 07007A   22069.56080726  .00000074  00000+0  00000+0 0  9998
2 30793   2.0653  92.8974 0009752 114.2187  39.6402  0.99075711 26568
SKYNET 5A               
1 30794U 07007B   22069.56862750 -.00000274  00000+0  00000+0 0  9997
2 30794   1.9942  88.8102 0003175 265.7487 113.5042  1.00271589 55067
ANIK F3                 
1 31102U 07009A   22069.56429219 -.00000003  00000+0  00000+0 0  9992
2 31102   0.0145 235.0397 0002484 106.9176 270.6890  1.00270933 30927
ASTRA 1L                
1 31306U 07016A   22069.55336433  .00000118  00000+0  00000+0 0  9996
2 31306   0.0768 302.2776 0004720  17.6892  66.6439  1.00275364 29372
GALAXY 17 (G-17)        
1 31307U 07016B   22069.53148116 -.00000176  00000+0  00000+0 0  9999
2 31307   0.0128 105.9588 0003047 229.8187 292.7191  1.00273251 54162
ZHONGXING-6B            
1 31800U 07031A   22069.56160437 -.00000364  00000+0  00000+0 0  9996
2 31800   0.0235 231.5873 0003720 110.8537 143.4209  1.00275827 53799
DIRECTV 10              
1 31862U 07032A   22069.57796389 -.00000105  00000+0  00000+0 0  9990
2 31862   0.0370 337.1823 0000091  41.8174 254.4660  1.00271716 29951
SPACEWAY 3              
1 32018U 07036A   22069.51899049 -.00000154  00000+0  00000+0 0  9993
2 32018   0.0404 331.4050 0000252 337.6854 310.9407  1.00272871 30910
BSAT-3A                 
1 32019U 07036B   22069.56160437 -.00000353  00000+0  00000+0 0  9992
2 32019   0.0535 240.3061 0001625  43.9890 195.9154  1.00271142 34888
OPTUS D2                
1 32252U 07044A   22069.53938171 -.00000186  00000+0  00000+0 0  9999
2 32252   0.0436 293.9810 0003685  54.5231 165.8476  1.00272512 52939
INTELSAT 11 (IS-11)     
1 32253U 07044B   22069.47424934 -.00000271  00000+0  00000+0 0  9995
2 32253   0.0149 131.3324 0001799 206.1062 318.3955  1.00269900 52852
WGS F1 (USA 195)        
1 32258U 07046A   22069.33551926  .00000038  00000+0  00000+0 0  9999
2 32258   0.0170 157.8695 0000314  80.3718  56.4881  1.00272485 36703
STAR ONE C1             
1 32293U 07056A   22069.53130672 -.00000170  00000+0  00000+0 0  9990
2 32293   0.7143  93.8893 0005598 254.4928 278.9976  1.00270229 36131
SKYNET 5B               
1 32294U 07056B   22069.55467260  .00000139  00000+0  00000+0 0  9993
2 32294   1.2780  89.8626 0003808 258.6689  44.4061  1.00271620 52557
ASTRA 4A (SIRIUS 4)     
1 32299U 07057A   22069.33525760  .00000030  00000+0  00000+0 0  9995
2 32299   0.0427 319.5893 0002944  20.5110 313.3534  1.00272115 36039
HORIZONS-2              
1 32388U 07063B   22069.49476233 -.00000185  00000+0  00000+0 0  9990
2 32388   0.0200 130.8130 0002936 212.9501  87.3428  1.00269647 52176
THURAYA-3               
1 32404U 08001A   22069.35400951 -.00000303  00000+0  00000+0 0  9993
2 32404   3.9906  21.4747 0002017 325.8306  46.6183  1.00271056 51853
EXPRESS-AM33            
1 32478U 08003A   22069.40389828 -.00000092  00000+0  00000+0 0  9996
2 32478   0.8079  94.0459 0000878 318.2822 250.0206  1.00272107 38095
THOR 5                  
1 32487U 08006A   22069.33421098 -.00000012  00000+0  00000+0 0  9999
2 32487   0.0444 263.5709 0002494  78.4998 305.4641  1.00272083 51668
AMC-14                  
1 32708U 08011A   22068.62018435  .00000079  00000+0  00000+0 0  9991
2 32708  21.9248  39.4219 0043505 357.1501  11.9737  1.00275884 52511
DIRECTV 11              
1 32729U 08013A   22069.58024247 -.00000128  00000+0  00000+0 0  9996
2 32729   0.0293   6.5376 0000114  26.5494 244.8246  1.00272377 29956
ICO G1                  
1 32763U 08016A   22069.45935175 -.00000172  00000+0  00000+0 0  9993
2 32763   3.9415  24.7322 0002435 320.9432 254.9271  1.00272848 50908
VINASAT-1               
1 32767U 08018A   22069.57595382 -.00000331  00000+0  00000+0 0  9991
2 32767   0.0414 306.7605 0001804  76.8107 123.9197  1.00271383 50962
STAR ONE C2             
1 32768U 08018B   22069.53653123 -.00000279  00000+0  00000+0 0  9997
2 32768   0.0345  47.2272 0002775 301.5581 307.5319  1.00271213 51032
TIANLIAN 1-01           
1 32779U 08019A   22069.58153637 -.00000047  00000+0  00000+0 0  9993
2 32779   6.3105  74.7732 0006686 253.3610 311.8663  0.97413272 50829
AMOS-3                  
1 32794U 08022A   22069.26173271 -.00000038  00000+0  00000+0 0  9995
2 32794   0.0110 147.9656 0001923 209.8509 260.1802  1.00271729 66702
GALAXY 18 (G-18)        
1 32951U 08024A   22069.56080722  .00000023  00000+0  00000+0 0  9996
2 32951   0.0145 135.8086 0003018 217.6984 253.5708  1.00271802 30219
CHINASAT 9 (ZX 9)       
1 33051U 08028A   22069.42448177 -.00000250  00000+0  00000+0 0  9992
2 33051   0.0091 165.3638 0004354 198.2778  49.4269  1.00271787 50398
SKYNET 5C               
1 33055U 08030A   22069.40250279 -.00000142  00000+0  00000+0 0  9991
2 33055   0.0624 352.5371 0003090   2.3704 300.1608  1.00271575 50319
TURKSAT 3A              
1 33056U 08030B   22069.55798689  .00000143  00000+0  00000+0 0  9990
2 33056   0.0245 104.0847 0003921 266.5501  40.4387  1.00275238 36715
INTELSAT 25 (IS-25)     
1 33153U 08034A   22069.34467123 -.00000226  00000+0  00000+0 0  9998
2 33153   0.0122 156.8899 0002907 198.2633 265.4037  1.00270169 50051
BADR-6                  
1 33154U 08034B   22069.55484705  .00000142  00000+0  00000+0 0  9993
2 33154   0.0582  46.0064 0006360 335.1301  12.8119  1.00275831 50110
ECHOSTAR 11             
1 33207U 08035A   22069.57219786 -.00000059  00000+0  00000+0 0  9998
2 33207   0.0417 299.2883 0002778  37.6572 287.2524  1.00271990 35595
SUPERBIRD-C2            
1 33274U 08038A   22069.58406164 -.00000254  00000+0  00000+0 0  9991
2 33274   0.0203 128.6018 0001939 240.7056 153.1109  1.00271492 90092
AMC-21                  
1 33275U 08038B   22069.55973306  .00000034  00000+0  00000+0 0  9991
2 33275   0.0484 304.6976 0002538  42.9266 257.1644  1.00272960 49852
INMARSAT 4-F3           
1 33278U 08039A   22069.58153707 -.00000140  00000+0  00000+0 0  9992
2 33278   3.2789  18.9022 0002614 340.5171 280.1509  1.00271490 30901
NIMIQ 4                 
1 33373U 08044A   22069.53331274 -.00000222  00000+0  00000+0 0  9997
2 33373   0.0203 230.6487 0002434 125.9042 281.5929  1.00272079 49346
GALAXY 19 (G-19)        
1 33376U 08045A   22069.58253399 -.00000141  00000+0  00000+0 0  9997
2 33376   0.0165 194.0036 0002928 153.4558 293.4691  1.00271859 49269
ASTRA 1M                
1 33436U 08057A   22069.55336433  .00000117  00000+0  00000+0 0  9997
2 33436   0.0123 159.0909 0001172 241.9991 345.4495  1.00269532 30089
CIEL-2                  
1 33453U 08063A   22069.55631465  .00000056  00000+0  00000+0 0  9998
2 33453   0.0426 257.7232 0003104 105.8852 236.0022  1.00273904 48493
EUTELSAT HOTBIRD 13C    
1 33459U 08065A   22069.55223050  .00000084  00000+0  00000+0 0  9994
2 33459   0.0484  11.5415 0004259   6.1629   2.2798  1.00270285 31707
EUTELSAT 48D            
1 33460U 08065B   22069.40363663 -.00000103  00000+0  00000+0 0  9998
2 33460   1.2116  93.7925 0003254 254.2850 312.7291  1.00271783 48314
FENGYUN 2E              
1 33463U 08066A   22069.56688314 -.00000205  00000+0  00000+0 0  9995
2 33463   5.6868  65.8609 0004306 350.7446  42.3926  1.00269597 48456
EXPRESS-AM44            
1 33595U 09007A   22068.97333178 -.00000092  00000+0  00000+0 0  9990
2 33595   0.0378 302.8585 0000223 243.5577 320.5796  1.00271481 47913
NSS-9                   
1 33749U 09008A   22069.61595991  .00000069  00000+0  00000+0 0  9990
2 33749   0.0436 318.4143 0002210  22.4774 232.1623  1.00274178 47893
EUTELSAT 33E            
1 33750U 09008B   22069.55624252  .00000153  00000+0  00000+0 0  9992
2 33750   0.0563   4.2438 0004683 341.0070  56.2512  1.00273128 47805
TELSTAR 11N             
1 34111U 09009A   22069.47034124 -.00000253  00000+0  00000+0 0  9991
2 34111   0.0159 137.9571 0001574 195.3777 326.5184  1.00271144 30592
EUTELSAT 10A            
1 34710U 09016A   22069.55153274  .00000066  00000+0  00000+0 0  9992
2 34710   0.0616   3.3265 0005546 349.7813  23.6054  1.00272376 25616
WGS F2 (USA 204)        
1 34713U 09017A   22069.56112674  .00000065  00000+0  00000+0 0  9995
2 34713   0.0177 159.2794 0001791  83.8266 184.6115  1.00273534 29971
SES-7 (PROTOSTAR 2)     
1 34941U 09027A   22069.56160437 -.00000348  00000+0  00000+0 0  9994
2 34941   0.0279  90.0389 0001585 212.4358 176.1549  1.00271373 46988
MEASAT-3A               
1 35362U 09032A   22069.49615781 -.00000244  00000+0  00000+0 0  9992
2 35362   0.0475 233.4229 0001512  74.4614 130.3645  1.00272473 46601
GOES 14                 
1 35491U 09033A   22069.52536248 -.00000094  00000+0  00000+0 0  9993
2 35491   0.0822  83.7520 0012563 143.6944  25.3286  1.00272435 46470
FM-5                    
1 35493U 09034A   22069.53244056 -.00000202  00000+0  00000+0 0  9991
2 35493   0.0179 142.9914 0000393 310.4847 180.2318  1.00267963 31006
TERRESTAR-1             
1 35496U 09035A   22069.57098782 -.00000057  00000+0  00000+0 0  9990
2 35496   3.0673  36.4293 0002829 315.2608 271.0713  1.00271505 46496
ASIASAT 5               
1 35696U 09042A   22069.56967411 -.00000310  00000+0  00000+0 0  9995
2 35696   0.0249 239.7688 0001731  73.9934 160.0265  1.00273658 46053
JCSAT-12 (JCSAT-RA)     
1 35755U 09044A   22069.43154642 -.00000349  00000+0  00000+0 0  9995
2 35755   0.0347 249.0138 0004409  91.0584 110.8460  1.00274396 45968
OPTUS D3                
1 35756U 09044B   22069.54259422 -.00000150  00000+0  00000+0 0  9990
2 35756   0.0563 338.8866 0004436   7.7692 172.8466  1.00273502 45926
NIMIQ 5                 
1 35873U 09050A   22069.53514434 -.00000259  00000+0  00000+0 0  9993
2 35873   0.0254 258.0402 0003023 102.1438 287.9338  1.00271451 45715
